<?xml version="1.0" encoding="UTF-8"?>
<kml xmlns="http://www.opengis.net/kml/2.2" xmlns:gx="http://www.google.com/kml/ext/2.2" xmlns:kml="http://www.opengis.net/kml/2.2" xmlns:atom="http://www.w3.org/2005/Atom">
<Document>
	<name>L. Botadero este.kml</name>
	<Schema name="tracks" id="tracks">
		<SimpleField type="string" name="cmt"></SimpleField>
		<SimpleField type="string" name="desc"></SimpleField>
		<SimpleField type="string" name="src"></SimpleField>
		<SimpleField type="string" name="link1_href"></SimpleField>
		<SimpleField type="string" name="link1_text"></SimpleField>
		<SimpleField type="string" name="link1_type"></SimpleField>
		<SimpleField type="string" name="link2_href"></SimpleField>
		<SimpleField type="string" name="link2_text"></SimpleField>
		<SimpleField type="string" name="link2_type"></SimpleField>
		<SimpleField type="int" name="number"></SimpleField>
		<SimpleField type="string" name="type"></SimpleField>
		<SimpleField type="string" name="gpxx_TrackExtension"></SimpleField>
		<SimpleField type="string" name="gpxtrkx_TrackStatsExtension"></SimpleField>
	</Schema>
	<Placemark>
		<name>L. Botadero este</name>
		<Style>
			<LineStyle>
				<color>ff0000ff</color>
			</LineStyle>
			<PolyStyle>
				<fill>0</fill>
			</PolyStyle>
		</Style>
		<ExtendedData>
			<SchemaData schemaUrl="#tracks">
				<SimpleData name="gpxx_TrackExtension"><![CDATA[<gpxx:DisplayColor>Red</gpxx:DisplayColor>]]></SimpleData>
			</SchemaData>
		</ExtendedData>
		<MultiGeometry>
			<LineString>
				<coordinates>
					-69.3276826199144,-22.8449280560017,0 -69.3273235391825,-22.8448873199522,0 -69.3267252389342,-22.8446640260518,0 -69.3263492267579,-22.8445186838508,0 -69.3259383458644,-22.8443002514541,0 -69.32544909417631,-22.8439697530121,0 -69.3243130948395,-22.8433455526829,0 -69.3238539341837,-22.8430620767176,0 -69.3234188295901,-22.8427885752171,0 -69.3226025998592,-22.8423642832786,0 -69.3216992821544,-22.8422549832612,0 -69.3210087809712,-22.842233190313,0 -69.3205876741558,-22.8422368783504,0 -69.320120383054,-22.84224257804451,0 -69.31965124793351,-22.842259593308,0 -69.3192972801626,-22.8423466812819,0 -69.31909443810579,-22.8424681350589,0 -69.31894398294391,-22.8426147345454,0 -69.3184854928404,-22.8431822732091,0 -69.3182449322194,-22.8434797469527,0 -69.3180233985186,-22.8437393344939,0 -69.31770622730259,-22.8440168593079,0 -69.31725754402579,-22.8443701565266,0 -69.31700617074971,-22.8446330968291,0 -69.3167701363564,-22.8449250385165,0 -69.31652169674631,-22.8452134598047,0 -69.3163054436445,-22.8454236779362,0 -69.31604677811259,-22.8456495702267,0 -69.3157811556011,-22.8459581919014,0 -69.31558133102951,-22.8462103195488,0 -69.3153752200305,-22.846488263458,0 -69.3153291195631,-22.8465554863214,0 -69.31510683149099,-22.8468813747168,0 -69.31507858447731,-22.8469139803201,0 -69.3147559650242,-22.8472089394927,0 -69.31450467556721,-22.8474913258106,0 -69.314462095499,-22.8475736360997,0 -69.3144495226443,-22.8480311203748,0 -69.3145550508052,-22.8482024464756,0 -69.3150661792606,-22.8484766185284,0 -69.3152902275324,-22.8485346212983,0 -69.3153141997755,-22.8485460206866,0 -69.3153322208673,-22.8485519718379,0 -69.3157103285193,-22.8485925402492,0 -69.3160634581,-22.8483874350786,0 -69.31627493351699,-22.8480155300349,0 -69.3163177650422,-22.847902122885,0 -69.3161384761333,-22.8475047368556,0 -69.3153785727918,-22.8474128711969,0 -69.3152398522943,-22.8471421357244,0 -69.31531252339479,-22.8470229450613,0 -69.3157541658729,-22.846422130242,0 -69.31594703346489,-22.8461484611034,0 -69.3160731811076,-22.8459641430527,0 -69.3163923639804,-22.8456787392497,0 -69.3167447391897,-22.845370285213,0 -69.31709962897,-22.844995027408,0 -69.3172598909587,-22.8448032494634,0 -69.31749559007589,-22.8445391356945,0 -69.3178382422775,-22.8442045301199,0 -69.3181054573506,-22.8439567610621,0 -69.3184467684478,-22.8436212334782,0 -69.3188018258661,-22.8431506734341,0 -69.31918588466939,-22.8427183348686,0 -69.3194875493646,-22.8424989804626,0 -69.3199994321913,-22.8423967212439,0 -69.32008543051781,-22.8424014989287,0 -69.32053713127971,-22.8424358647317,0 -69.3208342697471,-22.8424555622041,0 -69.32126577012239,-22.8424654528499,0 -69.321700790897,-22.8424705658108,0 -69.3221143539995,-22.8424980584532,0 -69.32250545360149,-22.8425728250295,0 -69.3228407297283,-22.8427409660071,0 -69.3242057226598,-22.8435131907463,0 -69.3248337786645,-22.8438944835216,0 -69.3251983914524,-22.8441383969039,0 -69.325683619827,-22.8444318473339,0 -69.3258942570537,-22.8445610962808,0 -69.32666522450749,-22.8450571373105,0 -69.3266807310283,-22.8450675308704,0 -69.3266839999706,-22.8450699616224,0 -69.32674518786369,-22.8451106976718,0 -69.32712723501029,-22.8453733865172,0 
				</coordinates>
			</LineString>
		</MultiGeometry>
		<atom:link rel="app" href="https://www.google.com/earth/about/versions/#earth-pro" title="Google Earth Pro 7.3.6.10201"></atom:link>
	</Placemark>
</Document>
</kml>
